CTC2_L_00415016-03
1 48469U 24744BF  26037.47795139  .00000000  00000+0  00000-0 0  9994
2 48469  85.0000 180.0000 0000000   0.0000   0.0000 12.65579224    19
CTC2_L_00415016-04
1 48470U 26648PT  26037.47795139  .00000000  00000+0  00000-0 0  9991
2 48470  85.0000 180.0000 0000000   0.0000  90.0000 12.65579224    10
CTC2_L_00415017-01
1 48471U 22164BD  26037.47795139  .00000000  00000+0  00000-0 0  9991
2 48471  85.0000 192.0000 0000000   0.0000 192.0000 12.65579224    17
CTC2_L_00415017-02
1 48472U 26010GR  26037.47795139  .00000000  00000+0  00000-0 0  9996
2 48472  85.0000 192.0000 0000000   0.0000 282.0000 12.65579224    18
CTC2_L_00415017-03
1 48473U 26080YO  26037.47795139  .00000000  00000+0  00000-0 0  9994
2 48473  85.0000 192.0000 0000000   0.0000  12.0000 12.65579224    10
CTC2_L_00415017-04
1 48474U 22070ZA  26037.47795139  .00000000  00000+0  00000-0 0  9990
2 48474  85.0000 192.0000 0000000   0.0000 102.0000 12.65579224    11
CTC2_L_00415018-01
1 48475U 24891JF  26037.47795139  .00000000  00000+0  00000-0 0  9994
2 48475  85.0000 204.0000 0000000   0.0000 204.0000 12.65579224    19
CTC2_L_00415018-02
1 48476U 24349A   26037.47795139  .00000000  00000+0  00000-0 0  9993
2 48476  85.0000 204.0000 0000000   0.0000 294.0000 12.65579224    19
CTC2_L_00415018-03
1 48477U 26318HP  26037.47795139  .00000000  00000+0  00000-0 0  9992
2 48477  85.0000 204.0000 0000000   0.0000  24.0000 12.65579224    11
CTC2_L_00415018-04
1 48478U 23410V   26037.47795139  .00000000  00000+0  00000-0 0  9993
2 48478  85.0000 204.0000 0000000   0.0000 114.0000 12.65579224    12
CTC2_L_00415019-01
1 48479U 22221BG  26037.47795139  .00000000  00000+0  00000-0 0  9993
2 48479  85.0000 216.0000 0000000   0.0000 216.0000 12.65579224    19
CTC2_L_00415019-02
1 48480U 26811DZ  26037.47795139  .00000000  00000+0  00000-0 0  9994
2 48480  85.0000 216.0000 0000000   0.0000 306.0000 12.65579224    11
CTC2_L_00415019-03
1 48481U 23971NZ  26037.47795139  .00000000  00000+0  00000-0 0  9999
2 48481  85.0000 216.0000 0000000   0.0000  36.0000 12.65579224    12
CTC2_L_00415019-04
1 48482U 25963FA  26037.47795139  .00000000  00000+0  00000-0 0  9993
2 48482  85.0000 216.0000 0000000   0.0000 126.0000 12.65579224    13
CTC2_L_00415020-01
1 48483U 24329AJ  26037.47795139  .00000000  00000+0  00000-0 0  9999
2 48483  85.0000 228.0000 0000000   0.0000 228.0000 12.65579224    10
CTC2_L_00415020-02
1 48484U 26349YY  26037.47795139  .00000000  00000+0  00000-0 0  9994
2 48484  85.0000 228.0000 0000000   0.0000 318.0000 12.65579224    11
CTC2_L_00415020-03
1 48485U 26245HF  26037.47795139  .00000000  00000+0  00000-0 0  9990
2 48485  85.0000 228.0000 0000000   0.0000  48.0000 12.65579224    12
CTC2_L_00415020-04
1 48486U 24685NM  26037.47795139  .00000000  00000+0  00000-0 0  9997
2 48486  85.0000 228.0000 0000000   0.0000 138.0000 12.65579224    13
CTC2_L_00415021-01
1 48487U 25031AD  26037.47795139  .00000000  00000+0  00000-0 0  9994
2 48487  85.0000 240.0000 0000000   0.0000 240.0000 12.65579224    12
CTC2_L_00415021-02
1 48488U 26784OM  26037.47795139  .00000000  00000+0  00000-0 0  9991
2 48488  85.0000 240.0000 0000000   0.0000 330.0000 12.65579224    13
CTC2_L_00415021-03
1 48489U 23294JR  26037.47795139  .00000000  00000+0  00000-0 0  9995
2 48489  85.0000 240.0000 0000000   0.0000  60.0000 12.65579224    14
CTC2_L_00415021-04
1 48490U 26150HX  26037.47795139  .00000000  00000+0  00000-0 0  9991
2 48490  85.0000 240.0000 0000000   0.0000 150.0000 12.65579224    16
CTC2_L_00415022-01
1 48491U 23539XI  26037.47795139  .00000000  00000+0  00000-0 0  9990
2 48491  85.0000 252.0000 0000000   0.0000 252.0000 12.65579224    13
CTC2_L_00415022-02
1 48492U 22314US  26037.47795139  .00000000  00000+0  00000-0 0  9991
2 48492  85.0000 252.0000 0000000   0.0000 342.0000 12.65579224    14
CTC2_L_00415022-03
1 48493U 26263CU  26037.47795139  .00000000  00000+0  00000-0 0  9999
2 48493  85.0000 252.0000 0000000   0.0000  72.0000 12.65579224    15
CTC2_L_00415022-04
1 48494U 22167QY  26037.47795139  .00000000  00000+0  00000-0 0  9999
2 48494  85.0000 252.0000 0000000   0.0000 162.0000 12.65579224    16
CTC2_L_00415023-01
1 48495U 23218IU  26037.47795139  .00000000  00000+0  00000-0 0  9998
2 48495  85.0000 264.0000 0000000   0.0000 264.0000 12.65579224    13
CTC2_L_00415023-02
1 48496U 26979FA  26037.47795139  .00000000  00000+0  00000-0 0  9996
2 48496  85.0000 264.0000 0000000   0.0000 354.0000 12.65579224    14
CTC2_L_00415023-03
1 48497U 25889GO  26037.47795139  .00000000  00000+0  00000-0 0  9996
2 48497  85.0000 264.0000 0000000   0.0000  84.0000 12.65579224    15
CTC2_L_00415023-04
1 48498U 23220EK  26037.47795139  .00000000  00000+0  00000-0 0  9994
2 48498  85.0000 264.0000 0000000   0.0000 174.0000 12.65579224    16
CTC2_L_00415024-01
1 48499U 26751KW  26037.47795139  .00000000  00000+0  00000-0 0  9997
2 48499  85.0000 276.0000 0000000   0.0000 276.0000 12.65579224    13
CTC2_L_00415024-02
1 48500U 23038YS  26037.47795139  .00000000  00000+0  00000-0 0  9995
2 48500  85.0000 276.0000 0000000   0.0000   6.0000 12.65579224    17
CTC2_L_00415024-03
1 48501U 22208BW  26037.47795139  .00000000  00000+0  00000-0 0  9994
2 48501  85.0000 276.0000 0000000   0.0000  96.0000 12.65579224    17
CTC2_L_00415024-04
1 48502U 22360SV  26037.47795139  .00000000  00000+0  00000-0 0  9994
2 48502  85.0000 276.0000 0000000   0.0000 186.0000 12.65579224    18
CTC2_L_00415025-01
1 48503U 24565XD  26037.47795139  .00000000  00000+0  00000-0 0  9994
2 48503  85.0000 288.0000 0000000   0.0000 288.0000 12.65579224    15
CTC2_L_00415025-02
1 48504U 25498GV  26037.47795139  .00000000  00000+0  00000-0 0  9991
2 48504  85.0000 288.0000 0000000   0.0000  18.0000 12.65579224    17
CTC2_L_00415025-03
1 48505U 26389AF  26037.47795139  .00000000  00000+0  00000-0 0  9992
2 48505  85.0000 288.0000 0000000   0.0000 108.0000 12.65579224    18
CTC2_L_00415025-04
1 48506U 25602RG  26037.47795139  .00000000  00000+0  00000-0 0  9990
2 48506  85.0000 288.0000 0000000   0.0000 198.0000 12.65579224    18
CTC2_L_00415026-01
1 48507U 26823GL  26037.47795139  .00000000  00000+0  00000-0 0  9997
2 48507  85.0000 300.0000 0000000   0.0000 300.0000 12.65579224    19
CTC2_L_00415026-02
1 48508U 26127KJ  26037.47795139  .00000000  00000+0  00000-0 0  9995
2 48508  85.0000 300.0000 0000000   0.0000  30.0000 12.65579224    10
CTC2_L_00415026-03
1 48509U 25275TM  26037.47795139  .00000000  00000+0  00000-0 0  9999
2 48509  85.0000 300.0000 0000000   0.0000 120.0000 12.65579224    11
CTC2_L_00415026-04
1 48510U 23328QE  26037.47795139  .00000000  00000+0  00000-0 0  9998
2 48510  85.0000 300.0000 0000000   0.0000 210.0000 12.65579224    13
CTC2_L_00415027-01
1 48511U 26184AL  26037.47795139  .00000000  00000+0  00000-0 0  9992
2 48511  85.0000 312.0000 0000000   0.0000 312.0000 12.65579224    10
CTC2_L_00415027-02
1 48512U 22547OJ  26037.47795139  .00000000  00000+0  00000-0 0  9992
2 48512  85.0000 312.0000 0000000   0.0000  42.0000 12.65579224    11
CTC2_L_00415027-03
1 48513U 23210AG  26037.47795139  .00000000  00000+0  00000-0 0  9991
2 48513  85.0000 312.0000 0000000   0.0000 132.0000 12.65579224    12
CTC2_L_00415027-04
1 48514U 25618PW  26037.47795139  .00000000  00000+0  00000-0 0  9996
2 48514  85.0000 312.0000 0000000   0.0000 222.0000 12.65579224    13
CTC2_L_00415028-01
1 48515U 25116AR  26037.47795139  .00000000  00000+0  00000-0 0  9990
2 48515  85.0000 324.0000 0000000   0.0000 324.0000 12.65579224    10
CTC2_L_00415028-02
1 48516U 25495MV  26037.47795139  .00000000  00000+0  00000-0 0  9991
2 48516  85.0000 324.0000 0000000   0.0000  54.0000 12.65579224    11
CTC2_L_00415028-03
1 48517U 26345IG  26037.47795139  .00000000  00000+0  00000-0 0  9997
2 48517  85.0000 324.0000 0000000   0.0000 144.0000 12.65579224    12
CTC2_L_00415028-04
1 48518U 25248NI  26037.47795139  .00000000  00000+0  00000-0 0  9999
2 48518  85.0000 324.0000 0000000   0.0000 234.0000 12.65579224    13
CTC2_L_00415029-01
1 48519U 25270HN  26037.47795139  .00000000  00000+0  00000-0 0  9995
2 48519  85.0000 336.0000 0000000   0.0000 336.0000 12.65579224    10
CTC2_L_00415029-02
1 48520U 26370SA  26037.47795139  .00000000  00000+0  00000-0 0  9999
2 48520  85.0000 336.0000 0000000   0.0000  66.0000 12.65579224    12
CTC2_L_00415029-03
1 48521U 25091DU  26037.47795139  .00000000  00000+0  00000-0 0  9999
2 48521  85.0000 336.0000 0000000   0.0000 156.0000 12.65579224    13
CTC2_L_00415029-04
1 48522U 22339FX  26037.47795139  .00000000  00000+0  00000-0 0  9992
2 48522  85.0000 336.0000 0000000   0.0000 246.0000 12.65579224    14
CTC2_L_00415030-01
1 48523U 25668AP  26037.47795139  .00000000  00000+0  00000-0 0  9991
2 48523  85.0000 348.0000 0000000   0.0000 348.0000 12.65579224    11
CTC2_L_00415030-02
1 48524U 26881AO  26037.47795139  .00000000  00000+0  00000-0 0  9990
2 48524  85.0000 348.0000 0000000   0.0000  78.0000 12.65579224    12
CTC2_L_00415030-03
1 48525U 23817LC  26037.47795139  .00000000  00000+0  00000-0 0  9997
2 48525  85.0000 348.0000 0000000   0.0000 168.0000 12.65579224    13
CTC2_L_00415030-04
1 48526U 24665YB  26037.47795139  .00000000  00000+0  00000-0 0  9990
2 48526  85.0000 348.0000 0000000   0.0000 258.0000 12.65579224    14
